CCSDS_OMM_VERS = 2.0
CREATION_DATE  = 
ORIGINATOR     = 

OBJECT_NAME    = SL-14 R/B
OBJECT_ID      = 1991-042B
CENTER_NAME    = EARTH
REF_FRAME      = TEME
TIME_SYSTEM    = UTC
MEAN_ELEMENT_THEORY = SGP/SGP4

EPOCH          = 2026-02-15T11:22:39.195264
MEAN_MOTION    = 14.81807390
ECCENTRICITY   = .0016036
INCLINATION    = 82.4898
RA_OF_ASC_NODE = 241.0188
ARG_OF_PERICENTER = 318.2280
MEAN_ANOMALY   = 41.7709

EPHEMERIS_TYPE = 0
CLASSIFICATION_TYPE = U
NORAD_CAT_ID   = 21423
ELEMENT_SET_NO = 999
REV_AT_EPOCH   = 84978
BSTAR          = .59508E-4
MEAN_MOTION_DOT = .494E-5
MEAN_MOTION_DDOT = 0

CCSDS_OMM_VERS = 2.0
CREATION_DATE  = 
ORIGINATOR     = 

OBJECT_NAME    = ERS-1
OBJECT_ID      = 1991-050A
CENTER_NAME    = EARTH
REF_FRAME      = TEME
TIME_SYSTEM    = UTC
MEAN_ELEMENT_THEORY = SGP/SGP4

EPOCH          = 2026-02-15T12:33:24.041088
MEAN_MOTION    = 14.39431732
ECCENTRICITY   = .0030871
INCLINATION    = 98.7893
RA_OF_ASC_NODE = 64.2002
ARG_OF_PERICENTER = 267.9763
MEAN_ANOMALY   = 91.7888

EPHEMERIS_TYPE = 0
CLASSIFICATION_TYPE = U
NORAD_CAT_ID   = 21574
ELEMENT_SET_NO = 999
REV_AT_EPOCH   = 81254
BSTAR          = .15142E-3
MEAN_MOTION_DOT = .427E-5
MEAN_MOTION_DDOT = 0

CCSDS_OMM_VERS = 2.0
CREATION_DATE  = 
ORIGINATOR     = 

OBJECT_NAME    = ARIANE 40 R/B
OBJECT_ID      = 1991-050F
CENTER_NAME    = EARTH
REF_FRAME      = TEME
TIME_SYSTEM    = UTC
MEAN_ELEMENT_THEORY = SGP/SGP4

EPOCH          = 2026-02-15T03:23:39.900192
MEAN_MOTION    = 14.42876506
ECCENTRICITY   = .00041054
INCLINATION    = 98.2060
RA_OF_ASC_NODE = 99.2188
ARG_OF_PERICENTER = 130.1977
MEAN_ANOMALY   = 229.9573

EPHEMERIS_TYPE = 0
CLASSIFICATION_TYPE = U
NORAD_CAT_ID   = 21610
ELEMENT_SET_NO = 999
REV_AT_EPOCH   = 81574
BSTAR          = .98364394E-4
MEAN_MOTION_DOT = .287E-5
MEAN_MOTION_DDOT = 0

CCSDS_OMM_VERS = 2.0
CREATION_DATE  = 
ORIGINATOR     = 

OBJECT_NAME    = INTERCOSMOS 25
OBJECT_ID      = 1991-086A
CENTER_NAME    = EARTH
REF_FRAME      = TEME
TIME_SYSTEM    = UTC
MEAN_ELEMENT_THEORY = SGP/SGP4

EPOCH          = 2026-02-15T04:49:44.454144
MEAN_MOTION    = 12.11938264
ECCENTRICITY   = .1486911
INCLINATION    = 82.6086
RA_OF_ASC_NODE = 323.5976
ARG_OF_PERICENTER = 165.3774
MEAN_ANOMALY   = 199.5720

EPHEMERIS_TYPE = 0
CLASSIFICATION_TYPE = U
NORAD_CAT_ID   = 21819
ELEMENT_SET_NO = 999
REV_AT_EPOCH   = 49396
BSTAR          = .28802E-3
MEAN_MOTION_DOT = .149E-4
MEAN_MOTION_DDOT = 0

CCSDS_OMM_VERS = 2.0
CREATION_DATE  = 
ORIGINATOR     = 

OBJECT_NAME    = SL-8 R/B
OBJECT_ID      = 1992-008B
CENTER_NAME    = EARTH
REF_FRAME      = TEME
TIME_SYSTEM    = UTC
MEAN_ELEMENT_THEORY = SGP/SGP4

EPOCH          = 2026-02-15T04:35:38.667264
MEAN_MOTION    = 13.75969909
ECCENTRICITY   = .00341822
INCLINATION    = 82.9254
RA_OF_ASC_NODE = 284.5167
ARG_OF_PERICENTER = 195.5007
MEAN_ANOMALY   = 284.4703

EPHEMERIS_TYPE = 0
CLASSIFICATION_TYPE = U
NORAD_CAT_ID   = 21876
ELEMENT_SET_NO = 999
REV_AT_EPOCH   = 70632
BSTAR          = .41170826E-4
MEAN_MOTION_DOT = .55E-6
MEAN_MOTION_DDOT = 0

CCSDS_OMM_VERS = 2.0
CREATION_DATE  = 
ORIGINATOR     = 

OBJECT_NAME    = SL-8 R/B
OBJECT_ID      = 1992-020B
CENTER_NAME    = EARTH
REF_FRAME      = TEME
TIME_SYSTEM    = UTC
MEAN_ELEMENT_THEORY = SGP/SGP4

EPOCH          = 2026-02-15T10:26:08.830752
MEAN_MOTION    = 13.75546443
ECCENTRICITY   = .0028864
INCLINATION    = 82.9337
RA_OF_ASC_NODE = 170.2797
ARG_OF_PERICENTER = 2.6889
MEAN_ANOMALY   = 62.5450

EPHEMERIS_TYPE = 0
CLASSIFICATION_TYPE = U
NORAD_CAT_ID   = 21938
ELEMENT_SET_NO = 999
REV_AT_EPOCH   = 69807
BSTAR          = .84892E-4
MEAN_MOTION_DOT = .97E-6
MEAN_MOTION_DDOT = 0

CCSDS_OMM_VERS = 2.0
CREATION_DATE  = 
ORIGINATOR     = 

OBJECT_NAME    = USA 81
OBJECT_ID      = 1992-023A
CENTER_NAME    = EARTH
REF_FRAME      = TEME
TIME_SYSTEM    = UTC
MEAN_ELEMENT_THEORY = SGP/SGP4

EPOCH          = 2026-02-15T05:37:33.031776
MEAN_MOTION    = 14.32359889
ECCENTRICITY   = .0002752
INCLINATION    = 85.0118
RA_OF_ASC_NODE = 144.3900
ARG_OF_PERICENTER = 97.8505
MEAN_ANOMALY   = 262.3000

EPHEMERIS_TYPE = 0
CLASSIFICATION_TYPE = U
NORAD_CAT_ID   = 21949
ELEMENT_SET_NO = 999
REV_AT_EPOCH   = 9157
BSTAR          = .753E-4
MEAN_MOTION_DOT = .223E-5
MEAN_MOTION_DDOT = 0

CCSDS_OMM_VERS = 2.0
CREATION_DATE  = 
ORIGINATOR     = 

OBJECT_NAME    = COSMOS 2219
OBJECT_ID      = 1992-076A
CENTER_NAME    = EARTH
REF_FRAME      = TEME
TIME_SYSTEM    = UTC
MEAN_ELEMENT_THEORY = SGP/SGP4

EPOCH          = 2026-02-15T10:48:53.891136
MEAN_MOTION    = 14.14077787
ECCENTRICITY   = .002003
INCLINATION    = 71.0580
RA_OF_ASC_NODE = 64.5599
ARG_OF_PERICENTER = 237.1294
MEAN_ANOMALY   = 122.7901

EPHEMERIS_TYPE = 0
CLASSIFICATION_TYPE = U
NORAD_CAT_ID   = 22219
ELEMENT_SET_NO = 999
REV_AT_EPOCH   = 71523
BSTAR          = .11728E-3
MEAN_MOTION_DOT = .176E-5
MEAN_MOTION_DDOT = 0

CCSDS_OMM_VERS = 2.0
CREATION_DATE  = 
ORIGINATOR     = 

OBJECT_NAME    = SL-16 R/B
OBJECT_ID      = 1992-076B
CENTER_NAME    = EARTH
REF_FRAME      = TEME
TIME_SYSTEM    = UTC
MEAN_ELEMENT_THEORY = SGP/SGP4

EPOCH          = 2026-02-15T12:32:16.442592
MEAN_MOTION    = 14.16855316
ECCENTRICITY   = .0011197
INCLINATION    = 70.9975
RA_OF_ASC_NODE = 235.0682
ARG_OF_PERICENTER = 136.6391
MEAN_ANOMALY   = 254.8472

EPHEMERIS_TYPE = 0
CLASSIFICATION_TYPE = U
NORAD_CAT_ID   = 22220
ELEMENT_SET_NO = 999
REV_AT_EPOCH   = 71869
BSTAR          = -.65408E-4
MEAN_MOTION_DOT = -.179E-5
MEAN_MOTION_DDOT = 0

CCSDS_OMM_VERS = 2.0
CREATION_DATE  = 
ORIGINATOR     = 

OBJECT_NAME    = COSMOS 2221
OBJECT_ID      = 1992-080A
CENTER_NAME    = EARTH
REF_FRAME      = TEME
TIME_SYSTEM    = UTC
MEAN_ELEMENT_THEORY = SGP/SGP4

EPOCH          = 2026-02-15T03:58:39.014112
MEAN_MOTION    = 14.96110533
ECCENTRICITY   = .00127959
INCLINATION    = 82.5048
RA_OF_ASC_NODE = 300.6543
ARG_OF_PERICENTER = 269.5170
MEAN_ANOMALY   = 90.4585

EPHEMERIS_TYPE = 0
CLASSIFICATION_TYPE = U
NORAD_CAT_ID   = 22236
ELEMENT_SET_NO = 999
REV_AT_EPOCH   = 77742
BSTAR          = .15597941E-3
MEAN_MOTION_DOT = .1782E-4
MEAN_MOTION_DDOT = 0

CCSDS_OMM_VERS = 2.0
CREATION_DATE  = 
ORIGINATOR     = 

OBJECT_NAME    = SL-16 R/B
OBJECT_ID      = 1992-093B
CENTER_NAME    = EARTH
REF_FRAME      = TEME
TIME_SYSTEM    = UTC
MEAN_ELEMENT_THEORY = SGP/SGP4

EPOCH          = 2026-02-15T09:47:08.353248
MEAN_MOTION    = 14.15443010
ECCENTRICITY   = .0005389
INCLINATION    = 71.0203
RA_OF_ASC_NODE = 51.0416
ARG_OF_PERICENTER = 317.8274
MEAN_ANOMALY   = 42.2434

EPHEMERIS_TYPE = 0
CLASSIFICATION_TYPE = U
NORAD_CAT_ID   = 22285
ELEMENT_SET_NO = 999
REV_AT_EPOCH   = 71000
BSTAR          = .17098E-3
MEAN_MOTION_DOT = .286E-5
MEAN_MOTION_DDOT = 0

CCSDS_OMM_VERS = 2.0
CREATION_DATE  = 
ORIGINATOR     = 

OBJECT_NAME    = COSMOS 2228
OBJECT_ID      = 1992-094A
CENTER_NAME    = EARTH
REF_FRAME      = TEME
TIME_SYSTEM    = UTC
MEAN_ELEMENT_THEORY = SGP/SGP4

EPOCH          = 2026-02-15T12:44:40.959168
MEAN_MOTION    = 14.97085539
ECCENTRICITY   = .001857
INCLINATION    = 82.5149
RA_OF_ASC_NODE = 258.5302
ARG_OF_PERICENTER = 20.9173
MEAN_ANOMALY   = 339.2805

EPHEMERIS_TYPE = 0
CLASSIFICATION_TYPE = U
NORAD_CAT_ID   = 22286
ELEMENT_SET_NO = 999
REV_AT_EPOCH   = 77274
BSTAR          = .19802E-3
MEAN_MOTION_DOT = .2316E-4
MEAN_MOTION_DDOT = 0

