SL-14 R/B               
1 21423U 91042B   26046.47406476  .00000494  00000+0  59508-4 0  9991
2 21423  82.4898 241.0188 0016036 318.2280  41.7709 14.81807390849782
ERS-1                   
1 21574U 91050A   26046.52319492  .00000427  00000+0  15142-3 0  9995
2 21574  98.7893  64.2002 0030871 267.9763  91.7888 14.39431732812546
ARIANE 40 R/B           
1 21610U 91050F   26046.14143403  .00000287  00000+0  98364-4 0  9993
2 21610  98.2060  99.2188 0004105 130.1977 229.9573 14.42876506815747
INTERCOSMOS 25          
1 21819U 91086A   26046.20120896  .00001490  00000+0  28802-3 0  9997
2 21819  82.6086 323.5976 1486911 165.3774 199.5720 12.11938264493962
SL-8 R/B                
1 21876U 92008B   26046.19141976  .00000055  00000+0  41171-4 0  9996
2 21876  82.9254 284.5167 0034182 195.5007 284.4703 13.75969909706328
SL-8 R/B                
1 21938U 92020B   26046.43482443  .00000097  00000+0  84892-4 0  9996
2 21938  82.9337 170.2797 0028864   2.6889  62.5450 13.75546443698075
USA 81                  
1 21949U 92023A   26046.23441009  .00000223  00000+0  75300-4 0  9997
2 21949  85.0118 144.3900 0002752  97.8505 262.3000 14.32359889 91578
COSMOS 2219             
1 22219U 92076A   26046.45062374  .00000176  00000+0  11728-3 0  9994
2 22219  71.0580  64.5599 0020030 237.1294 122.7901 14.14077787715236
SL-16 R/B               
1 22220U 92076B   26046.52241253 -.00000179  00000+0 -65408-4 0  9999
2 22220  70.9975 235.0682 0011197 136.6391 254.8472 14.16855316718694
COSMOS 2221             
1 22236U 92080A   26046.16572933  .00001782  00000+0  15598-3 0  9996
2 22236  82.5048 300.6543 0012795 269.5170  90.4585 14.96110533777420
SL-16 R/B               
1 22285U 92093B   26046.40773557  .00000286  00000+0  17098-3 0  9991
2 22285  71.0203  51.0416 0005389 317.8274  42.2434 14.15443010710008
COSMOS 2228             
1 22286U 92094A   26046.53102962  .00002316  00000+0  19802-3 0  9994
2 22286  82.5149 258.5302 0018570  20.9173 339.2805 14.97085539772747
